NORAD_CAT_ID,OBJECT_NAME,OBJECT_TYPE,EPOCH,MEAN_MOTION,ECCENTRICITY,INCLINATION,RA_OF_ASC_NODE,ARG_OF_PERICENTER,MEAN_ANOMALY,BSTAR,MEAN_MOTION_DOT,MEAN_MOTION_DDOT,TLE_LINE0,TLE_LINE1,TLE_LINE2,SEMIMAJOR_AXIS,PERIOD,APOGEE,PERIGEE,DECAYED
55439.0,STARLINK-5634,PAYLOAD,2023-03-06 14:00:01,15.2282052,0.0003005,70.001,356.3057,269.7648,247.6725,-0.052868,-0.0114451,0.0,0 STARLINK-5634,1 55439U 23014BA  23065.58334491 -.01144510  00000-0 -52868-1 0  9997,2 55439  70.0010 356.3057 0003005 269.7648 247.6725 15.22820520  5482,6875.475,94.561,499.406,495.274,0.0
55439.0,STARLINK-5634,PAYLOAD,2023-03-06 22:00:00,15.22020116,0.0003041,70.0013,355.4336,268.2727,275.5224,-0.05966,-0.0125172,0.0,0 STARLINK-5634,1 55439U 23014BA  23065.91667824 -.01251720  00000-0 -59660-1 0  9992,2 55439  70.0013 355.4336 0003041 268.2727 275.5224 15.22020116  5530,6877.885,94.611,501.842,497.658,0.0
55439.0,STARLINK-5634,PAYLOAD,2023-03-07 14:00:01,15.20247177,0.0002997,70.0012,353.6922,266.4614,327.0015,-0.057173,-0.01147104,0.0,0 STARLINK-5634,1 55439U 23014BA  23066.58334491 -.01147104  00000-0 -57173-1 0  9994,2 55439  70.0012 353.6922 0002997 266.4614 327.0015 15.20247177  5632,6883.231,94.721,507.159,503.034,0.0
55439.0,STARLINK-5634,PAYLOAD,2023-03-07 22:00:00,15.19439775,0.0003108,70.0014,352.8236,265.8949,350.8394,-0.063977,-0.0124501,0.0,0 STARLINK-5634,1 55439U 23014BA  23066.91667824 -.01245010  00000-0 -63977-1 0  9994,2 55439  70.0014 352.8236 0003108 265.8949 350.8394 15.19439775  5686,6885.67,94.772,509.675,505.395,0.0
55439.0,STARLINK-5634,PAYLOAD,2023-03-08 14:00:01,15.17670045,0.0003122,70.0012,351.0891,265.2638,34.957,-0.061504,-0.01145214,0.0,0 STARLINK-5634,1 55439U 23014BA  23067.58334491 -.01145214  00000-0 -61504-1 0  9998,2 55439  70.0012 351.0891 0003122 265.2638  34.9570 15.17670045  5789,6891.021,94.882,515.038,510.735,0.0
55439.0,STARLINK-5634,PAYLOAD,2023-03-08 22:00:00,15.16860462,0.0003255,70.0014,350.2238,266.0863,54.3185,-0.068624,-0.01239943,0.0,0 STARLINK-5634,1 55439U 23014BA  23067.91667824 -.01239943  00000-0 -68624-1 0  9997,2 55439  70.0014 350.2238 0003255 266.0863  54.3185 15.16860462  5830,6893.473,94.933,517.582,513.094,0.0
55439.0,STARLINK-5634,PAYLOAD,2023-03-09 22:00:00,15.14280625,0.0003275,70.0014,347.6344,267.3207,107.4833,-0.073586,-0.01235711,0.0,0 STARLINK-5634,1 55439U 23014BA  23068.91667824 -.01235711  00000-0 -73586-1 0  9990,2 55439  70.0014 347.6344 0003275 267.3207 107.4833 15.14280625  5987,6901.3,95.095,525.426,520.905,0.0
55439.0,STARLINK-5634,PAYLOAD,2023-03-10 22:00:00,15.11699256,0.0003236,70.0011,345.0551,268.2272,151.7067,-0.078677,-0.01229308,0.0,0 STARLINK-5634,1 55439U 23014BA  23069.91667824 -.01229308  00000-0 -78677-1 0  9992,2 55439  70.0011 345.0551 0003236 268.2272 151.7067 15.11699256  1309,6909.155,95.257,533.255,528.784,0.0
55439.0,STARLINK-5634,PAYLOAD,2023-03-11 06:00:00,15.1083856,0.0003142,70.0007,344.1976,273.3948,159.5149,-0.079361,-0.01212128,0.0,0 STARLINK-5634,1 55439U 23014BA  23070.25001157 -.01212128  00000-0 -79361-1 0  9995,2 55439  70.0007 344.1976 0003142 273.3948 159.5149 15.10838560  6188,6911.778,95.311,535.815,531.472,0.0
55439.0,STARLINK-5634,PAYLOAD,2023-03-11 14:00:01,15.09942242,0.0003135,70.0008,343.3413,267.4134,177.522,-0.076431,-0.01144384,0.0,0 STARLINK-5634,1 55439U 23014BA  23070.58335648 -.01144384  00000-0 -76431-1 0  9999,2 55439  70.0008 343.3413 0003135 267.4134 177.5220 15.09942242  1309,6914.513,95.368,538.546,534.211,0.0
55439.0,STARLINK-5634,PAYLOAD,2023-03-11 22:00:00,15.09117086,0.0003137,70.0009,342.4861,268.8944,186.8981,-0.083986,-0.01222235,0.0,0 STARLINK-5634,1 55439U 23014BA  23070.91667824 -.01222235  00000-0 -83986-1 0  9995,2 55439  70.0009 342.4861 0003137 268.8944 186.8981 15.09117086  1300,6917.034,95.42,541.068,536.729,0.0
55439.0,STARLINK-5634,PAYLOAD,2023-03-12 06:00:00,15.0826436,0.0003032,70.0005,341.632,273.5033,192.1732,-0.08547,-0.01215606,0.0,0 STARLINK-5634,1 55439U 23014BA  23071.25001157 -.01215606  00000-0 -85470-1 0  9998,2 55439  70.0005 341.6320 0003032 273.5033 192.1732 15.08264360  6343,6919.64,95.474,543.603,539.407,0.0
55439.0,STARLINK-5634,PAYLOAD,2023-03-12 14:00:01,15.07364014,0.0003115,70.0006,340.7791,267.5407,207.0109,-0.081791,-0.01141237,0.0,0 STARLINK-5634,1 55439U 23014BA  23071.58334491 -.01141237  00000-0 -81791-1 0  9994,2 55439  70.0006 340.7791 0003115 267.5407 207.0109 15.07364014  1307,6922.396,95.531,546.417,542.104,0.0
55439.0,STARLINK-5634,PAYLOAD,2023-03-12 22:00:00,15.06534303,0.000312,70.0008,339.9272,269.2707,213.112,-0.089379,-0.01212875,0.0,0 STARLINK-5634,1 55439U 23014BA  23071.91667824 -.01212875  00000-0 -89379-1 0  9997,2 55439  70.0008 339.9272 0003120 269.2707 213.1120 15.06534303  1301,6924.937,95.584,548.963,544.641,0.0
55439.0,STARLINK-5634,PAYLOAD,2023-03-13 06:00:00,15.05690118,0.0002946,70.0004,339.0765,273.3227,215.8508,-0.092016,-0.01219758,0.0,0 STARLINK-5634,1 55439U 23014BA  23072.25001157 -.01219758  00000-0 -92016-1 0  9995,2 55439  70.0004 339.0765 0002946 273.3227 215.8508 15.05690118  6493,6927.525,95.637,551.431,547.349,0.0
55439.0,STARLINK-5634,PAYLOAD,2023-03-13 14:00:01,15.0479223,0.0002996,70.0005,338.2271,266.8545,228.1018,-0.088207,-0.01147418,0.0,0 STARLINK-5634,1 55439U 23014BA  23072.58334491 -.01147418  00000-0 -88207-1 0  9991,2 55439  70.0005 338.2271 0002996 266.8545 228.1018 15.04792230  1307,6930.281,95.694,554.222,550.069,0.0
55439.0,STARLINK-5634,PAYLOAD,2023-03-13 22:00:00,15.03953352,0.0003044,70.0007,337.3785,269.4841,230.2173,-0.095202,-0.01205643,0.0,0 STARLINK-5634,1 55439U 23014BA  23072.91667824 -.01205643  00000-0 -95202-1 0  9995,2 55439  70.0007 337.3785 0003044 269.4841 230.2173 15.03953352  1301,6932.857,95.748,556.833,552.612,0.0
55439.0,STARLINK-5634,PAYLOAD,2023-03-14 06:00:00,15.03119876,0.0002925,70.0003,336.5313,272.9718,230.4269,-0.099451,-0.01245155,0.0,0 STARLINK-5634,1 55439U 23014BA  23073.25001157 -.01245155  00000-0 -99451-1 0  9996,2 55439  70.0003 336.5313 0002925 272.9718 230.4269 15.03119876  6649,6935.42,95.801,559.314,555.256,0.0
55439.0,STARLINK-5634,PAYLOAD,2023-03-14 14:00:01,15.02218179,0.0002988,70.0004,335.6853,266.7072,239.3859,-0.094833,-0.01151275,0.0,0 STARLINK-5634,1 55439U 23014BA  23073.58334491 -.01151275  00000-0 -94833-1 0  9990,2 55439  70.0004 335.6853 0002988 266.7072 239.3859 15.02218179  1308,6938.195,95.858,562.133,557.987,0.0
55439.0,STARLINK-5634,PAYLOAD,2023-03-14 22:00:00,15.0137205,0.0003057,70.0007,334.8401,269.8953,237.8552,-0.10125,-0.01212717,0.0,0 STARLINK-5634,1 55439U 23014BA  23073.91667824 -.01212717  00000-0 -10125+0 0  9995,2 55439  70.0007 334.8401 0003057 269.8953 237.8552 15.01372050  1302,6940.801,95.912,564.788,560.545,0.0
55439.0,STARLINK-5634,PAYLOAD,2023-03-15 14:00:01,14.99407019,0.0003406,70.0004,333.1536,266.3241,241.6685,-0.030418,-0.00355081,0.0,0 STARLINK-5634,1 55439U 23014BA  23074.58334491 -.00355081  00000-0 -30418-1 0  9990,2 55439  70.0004 333.1536 0003406 266.3241 241.6685 14.99407019  6844,6946.864,96.038,571.095,566.363,0.0
55439.0,STARLINK-5634,PAYLOAD,2023-03-15 22:00:00,14.99157371,0.0003317,70.0007,332.3117,269.0368,237.5712,-0.0037871,-0.00045961,0.0,0 STARLINK-5634,1 55439U 23014BA  23074.91667824 -.00045961  00000-0 -37871-2 0  9990,2 55439  70.0007 332.3117 0003317 269.0368 237.5712 14.99157371  6897,6947.635,96.054,571.805,567.196,0.0
55439.0,STARLINK-5634,PAYLOAD,2023-03-16 14:00:01,14.99109395,0.000317,70.0005,330.6284,267.5518,235.9506,0.007521,0.00092697,0.0,0 STARLINK-5634,1 55439U 23014BA  23075.58334491  .00092697  00000-0  75210-2 0  9990,2 55439  70.0005 330.6284 0003170 267.5518 235.9506 14.99109395  6995,6947.784,96.057,571.851,567.446,0.0
55439.0,STARLINK-5634,PAYLOAD,2023-03-16 22:00:00,14.99204577,0.0003137,70.0008,329.7869,272.1729,229.7823,-0.0072544,-0.00087544,0.0,0 STARLINK-5634,1 55439U 23014BA  23075.91667824 -.00087544  00000-0 -72544-2 0  9990,2 55439  70.0008 329.7869 0003137 272.1729 229.7823 14.99204577  1306,6947.49,96.051,571.534,567.175,0.0
55439.0,STARLINK-5634,PAYLOAD,2023-03-17 06:00:00,14.99141644,0.0003009,70.0005,328.9451,275.7947,224.632,-0.0023072,-0.00028096,0.0,0 STARLINK-5634,1 55439U 23014BA  23076.25001157 -.00028096  00000-0 -23072-2 0  9998,2 55439  70.0005 328.9451 0003009 275.7947 224.6320 14.99141644  7093,6947.684,96.055,571.64,567.459,0.0
55439.0,STARLINK-5634,PAYLOAD,2023-03-17 14:00:01,14.99095229,0.0002997,70.0006,328.1037,268.96,229.9154,0.0065522,0.00080574,0.0,0 STARLINK-5634,1 55439U 23014BA  23076.58334491  .00080574  00000-0  65522-2 0  9997,2 55439  70.0006 328.1037 0002997 268.9600 229.9154 14.99095229  1309,6947.827,96.058,571.775,567.61,0.0
55439.0,STARLINK-5634,PAYLOAD,2023-03-17 22:00:00,14.9916435,0.0003016,70.0008,327.2621,271.1447,226.1648,-0.0043183,-0.00052355,0.0,0 STARLINK-5634,1 55439U 23014BA  23076.91667824 -.00052355  00000-0 -43183-2 0  9990,2 55439  70.0008 327.2621 0003016 271.1447 226.1648 14.99164350  7190,6947.614,96.054,571.574,567.384,0.0
55439.0,STARLINK-5634,PAYLOAD,2023-03-18 14:00:01,14.9910101,0.0003058,70.0007,325.579,265.769,228.4492,0.0063787,0.00078426,0.0,0 STARLINK-5634,1 55439U 23014BA  23077.58334491  .00078426  00000-0  63787-2 0  9992,2 55439  70.0007 325.5790 0003058 265.7690 228.4492 14.99101010  7299,6947.81,96.058,571.799,567.55,0.0
55439.0,STARLINK-5634,PAYLOAD,2023-03-18 22:00:00,14.99150962,0.0003054,70.0008,324.7375,269.2665,223.3933,-0.0021949,-0.00026745,0.0,0 STARLINK-5634,1 55439U 23014BA  23077.91667824 -.00026745  00000-0 -21949-2 0  9991,2 55439  70.0008 324.7375 0003054 269.2665 223.3933 14.99150962  7347,6947.655,96.054,571.642,567.398,0.0
55439.0,STARLINK-5634,PAYLOAD,2023-03-19 02:12:52,14.99144448,0.0002865,69.9994,324.2939,268.4113,91.6719,-1.5004e-05,-2.77e-06,0.0,0 STARLINK-5634,1 55439U 23014BA  23078.09227424 -.00000277  00000-0 -15004-4 0  9998,2 55439  69.9994 324.2939 0002865 268.4113  91.6719 14.99144448  7369,6947.675,96.055,571.531,567.55,0.0
